NORAD_CAT_ID,OBJECT_NAME,OBJECT_TYPE,EPOCH,MEAN_MOTION,ECCENTRICITY,INCLINATION,RA_OF_ASC_NODE,ARG_OF_PERICENTER,MEAN_ANOMALY,BSTAR,MEAN_MOTION_DOT,MEAN_MOTION_DDOT,TLE_LINE0,TLE_LINE1,TLE_LINE2,SEMIMAJOR_AXIS,PERIOD,APOGEE,PERIGEE,DECAYED
49411.0,STARLINK-3162,PAYLOAD,2022-08-25 00:54:29,15.088307,0.0001802,53.2167,262.0693,48.2665,311.8481,5.6099e-05,6.05e-06,0.0,0 STARLINK-3162,1 49411U 21104D   22237.03784475  .00000605  00000-0  56099-4 0  9995,2 49411  53.2167 262.0693 0001802  48.2665 311.8481 15.08830700 44708,6917.909000000002,95.438,541.02,538.5269999999998,0.0
49411.0,STARLINK-3162,PAYLOAD,2022-08-25 08:51:25,15.08831972,0.0001813,53.2168,260.5825,48.6672,311.4476,6.0069e-05,6.68e-06,0.0,0 STARLINK-3162,1 49411U 21104D   22237.36904573  .00000668  00000-0  60069-4 0  9995,2 49411  53.2168 260.5825 0001813  48.6672 311.4476 15.08831972 43670,6917.905,95.438,541.024,538.516,0.0
49411.0,STARLINK-3162,PAYLOAD,2022-08-25 18:23:44,15.08833265,0.0001824,53.2167,258.7983,48.9996,311.1154,6.3442e-05,7.22e-06,0.0,0 STARLINK-3162,1 49411U 21104D   22237.76648645  .00000722  00000-0  63442-4 0  9993,2 49411  53.2167 258.7983 0001824  48.9996 311.1154 15.08833265 43731,6917.901,95.438,541.028,538.504,0.0
49411.0,STARLINK-3162,PAYLOAD,2022-08-26 10:17:35,15.08836771,0.0001795,53.2164,255.8244,50.1909,309.9241,6.942399999999999e-05,8.17e-06,0.0,0 STARLINK-3162,1 49411U 21104D   22238.42888578  .00000817  00000-0  69424-4 0  9999,2 49411  53.2164 255.8244 0001795  50.1909 309.9241 15.08836771 43830,6917.89,95.438,540.997,538.513,0.0
49411.0,STARLINK-3162,PAYLOAD,2022-08-27 08:32:59,15.08843391,0.0001902,53.2165,251.6609,49.6151,310.5007,6.3515e-05,7.23e-06,0.0,0 STARLINK-3162,1 49411U 21104D   22239.35624198  .00000723  00000-0  63515-4 0  9999,2 49411  53.2165 251.6609 0001902  49.6151 310.5007 15.08843391 43971,6917.87,95.437,541.0509999999998,538.419,0.0
49411.0,STARLINK-3162,PAYLOAD,2022-08-28 00:26:50,15.08842918,0.0001655,53.2162,248.6867,47.6545,312.4587,0.00011254,1.504e-05,0.0,0 STARLINK-3162,1 49411U 21104D   22240.01863752  .00001504  00000-0  11254-3 0  9995,2 49411  53.2162 248.6867 0001655  47.6545 312.4587 15.08842918 45150,6917.871,95.437,540.881,538.592,0.0
49411.0,STARLINK-3162,PAYLOAD,2022-08-28 06:48:22,15.08851837,0.0001746,53.2163,247.4978,52.1144,308.0006,4.485600000000001e-05,4.26e-06,0.0,0 STARLINK-3162,1 49411U 21104D   22240.28359351  .00000426  00000-0  44856-4 0  9996,2 49411  53.2163 247.4978 0001746  52.1144 308.0006 15.08851837 44110,6917.844,95.437,540.9169999999998,538.501,0.0
49411.0,STARLINK-3162,PAYLOAD,2022-08-29 05:03:47,15.08839581,0.0001943999999999,53.2165,243.3349,55.0916,305.0258,-3.3469e-05,-8.21e-06,0.0,0 STARLINK-3162,1 49411U 21104D   22241.21096106 -.00000821  00000-0 -33469-4 0  9995,2 49411  53.2165 243.3349 0001944  55.0916 305.0258 15.08839581 45331,6917.882,95.438,541.092,538.4019999999998,0.0
49411.0,STARLINK-3162,PAYLOAD,2022-08-29 06:39:10,15.08839357,0.0001940999999999,53.2165,243.0375,55.0703,305.0471,-3.4999e-05,-8.45e-06,0.0,0 STARLINK-3162,1 49411U 21104D   22241.27720116 -.00000845  00000-0 -34999-4 0  9991,2 49411  53.2165 243.0375 0001941  55.0703 305.0471 15.08839357 44267,6917.882,95.438,541.09,538.405,0.0
49411.0,STARLINK-3162,PAYLOAD,2022-08-29 17:46:52,15.08840617,0.0001986,53.2163,240.9564,54.655,305.4628,-4.1168e-05,-9.43e-06,0.0,0 STARLINK-3162,1 49411U 21104D   22241.74088038 -.00000943  00000-0 -41168-4 0  9998,2 49411  53.2163 240.9564 0001986  54.6550 305.4628 15.08840617 44332,6917.879,95.438,541.117,538.37,0.0
49411.0,STARLINK-3162,PAYLOAD,2022-08-30 09:40:43,15.08842912,0.0001924,53.2162,237.9823,54.6004,305.5167,-2.2172e-05,-6.41e-06,0.0,0 STARLINK-3162,1 49411U 21104D   22242.40327635 -.00000641  00000-0 -22172-4 0  9990,2 49411  53.2162 237.9823 0001924  54.6004 305.5167 15.08842912 45511,6917.871,95.437,541.067,538.405,0.0
49411.0,STARLINK-3162,PAYLOAD,2022-08-31 09:31:30,15.08834371,0.000195,53.2165,233.5223,52.2681,307.8488,2.0196e-05,3.3e-07,0.0,0 STARLINK-3162,1 49411U 21104D   22243.39688046  .00000033  00000-0  20196-4 0  9992,2 49411  53.2165 233.5223 0001950  52.2681 307.8488 15.08834371 45661,6917.898,95.438,541.112,538.414,0.0
49411.0,STARLINK-3162,PAYLOAD,2022-09-01 03:00:46,15.088251500000002,0.0001989,53.2166,230.2517,54.9016,305.2163,-8.0382e-05,-1.567e-05,0.0,0 STARLINK-3162,1 49411U 21104D   22244.12553684 -.00001567  00000-0 -80382-4 0  9991,2 49411  53.2166 230.2517 0001989  54.9016 305.2163 15.08825150 45774,6917.926,95.438,541.1669999999998,538.415,0.0
49411.0,STARLINK-3162,PAYLOAD,2022-09-01 09:22:19,15.0882527,0.0001995,53.2168,229.0624,53.787,306.3306,-7.647699999999999e-05,-1.505e-05,0.0,0 STARLINK-3162,1 49411U 21104D   22244.39049917 -.00001505  00000-0 -76477-4 0  9991,2 49411  53.2168 229.0624 0001995  53.7870 306.3306 15.08825270 44732,6917.925,95.438,541.1709999999998,538.41,0.0
49411.0,STARLINK-3162,PAYLOAD,2022-09-02 04:26:54,15.08845779,0.0002095,53.2172,225.4962,23.2828,336.8259,0.00017901,2.562e-05,0.0,0 STARLINK-3162,1 49411U 21104D   22245.18535550  .00002562  00000-0  17901-3 0  9990,2 49411  53.2172 225.4962 0002095  23.2828 336.8259 15.08845779 45933,6917.863,95.437,541.177,538.278,0.0
49411.0,STARLINK-3162,PAYLOAD,2022-09-02 15:34:38,15.08829914,0.0002065999999999,53.2162,223.4116,43.5428,316.5727,1.5893e-05,-3.5e-07,0.0,0 STARLINK-3162,1 49411U 21104D   22245.64905113 -.00000035  00000-0  15893-4 0  9990,2 49411  53.2162 223.4116 0002066  43.5428 316.5727 15.08829914 46007,6917.911,95.438,541.205,538.347,0.0
49411.0,STARLINK-3162,PAYLOAD,2022-09-03 07:28:29,15.08833276,0.0002063,53.2165,220.4386,43.8505,316.2651,9.5239e-05,1.228e-05,0.0,0 STARLINK-3162,1 49411U 21104D   22246.31145337  .00001228  00000-0  95239-4 0  9995,2 49411  53.2165 220.4386 0002063  43.8505 316.2651 15.08833276 45022,6917.901,95.438,541.193,538.339,0.0
49411.0,STARLINK-3162,PAYLOAD,2022-09-04 04:08:30,15.08798494,0.0002466,53.2167,216.5715,48.5313,311.5891,0.00071214,0.00011051,0.0,0 STARLINK-3162,1 49411U 21104D   22247.17256959  .00011051  00000-0  71214-3 0  9994,2 49411  53.2167 216.5715 0002466  48.5313 311.5891 15.08798494 46232,6918.007,95.44,541.578,538.1659999999998,0.0
49411.0,STARLINK-3162,PAYLOAD,2022-09-04 07:19:15,15.0885098,0.0002211999999999,53.2169,215.9765,41.7056,318.4105,7.630899999999999e-05,9.27e-06,0.0,0 STARLINK-3162,1 49411U 21104D   22247.30503791  .00000927  00000-0  76309-4 0  9999,2 49411  53.2169 215.9765 0002212  41.7056 318.4105 15.08850980 45175,6917.847,95.437,541.242,538.182,0.0
49411.0,STARLINK-3162,PAYLOAD,2022-09-04 15:16:10,15.08851976,0.0002193,53.217,214.4912,42.4165,317.6997,0.00020976,3.053e-05,0.0,0 STARLINK-3162,1 49411U 21104D   22247.63623263  .00003053  00000-0  20976-3 0  9993,2 49411  53.2170 214.4912 0002193  42.4165 317.6997 15.08851976 45224,6917.844,95.437,541.226,538.192,0.0
49411.0,STARLINK-3162,PAYLOAD,2022-09-05 03:59:15,15.08849633,0.0002193,53.2172,212.1124,45.1599,314.9571,0.0001291999999999,1.769e-05,0.0,0 STARLINK-3162,1 49411U 21104D   22248.16615436  .00001769  00000-0  12920-3 0  9997,2 49411  53.2172 212.1124 0002193  45.1599 314.9571 15.08849633 45301,6917.851,95.437,541.2330000000002,538.1990000000002,0.0
49411.0,STARLINK-3162,PAYLOAD,2022-09-06 03:50:03,15.08840333,0.0002191999999999,53.217,207.651,40.2142,319.9012,-6.401100000000001e-05,-1.307e-05,0.0,0 STARLINK-3162,1 49411U 21104D   22249.15976186 -.00001307  00000-0 -64011-4 0  9998,2 49411  53.2170 207.6510 0002192  40.2142 319.9012 15.08840333 46535,6917.879,95.438,541.261,538.2280000000002,0.0
49411.0,STARLINK-3162,PAYLOAD,2022-09-06 22:54:42,15.08824509,0.0002121999999999,53.217,204.0827,41.0646,319.0505,-0.00014535,-2.6e-05,0.0,0 STARLINK-3162,1 49411U 21104D   22249.95465648 -.00002600  00000-0 -14535-3 0  9994,2 49411  53.2170 204.0827 0002122  41.0646 319.0505 15.08824509 46656,6917.928000000001,95.439,541.261,538.325,0.0
49411.0,STARLINK-3162,PAYLOAD,2022-09-07 03:40:51,15.0883482,0.0002191999999999,53.217,203.1901,42.5449,317.5712,-8.468399999999999e-05,-1.636e-05,0.0,0 STARLINK-3162,1 49411U 21104D   22250.15336965 -.00001636  00000-0 -84684-4 0  9998,2 49411  53.2170 203.1901 0002192  42.5449 317.5712 15.08834820 45607,6917.896,95.438,541.278,538.245,0.0
49411.0,STARLINK-3162,PAYLOAD,2022-09-08 00:20:51,15.08838212,0.0002201,53.2168,199.3243,41.4883,318.6276,6.4834e-05,7.44e-06,0.0,0 STARLINK-3162,1 49411U 21104D   22251.01448593  .00000744  00000-0  64834-4 0  9997,2 49411  53.2168 199.3243 0002201  41.4883 318.6276 15.08838212 46810,6917.886,95.438,541.273,538.2280000000002,0.0
49411.0,STARLINK-3162,PAYLOAD,2022-09-08 05:07:00,15.08837491,0.0002256999999999,53.2178,198.4347,46.0552,314.0626,0.00013097,1.797e-05,0.0,0 STARLINK-3162,1 49411U 21104D   22251.21320535  .00001797  00000-0  13097-3 0  9997,2 49411  53.2178 198.4347 0002257  46.0552 314.0626 15.08837491 45761,6917.888000000001,95.438,541.314,538.192,0.0
49411.0,STARLINK-3162,PAYLOAD,2022-09-08 13:03:57,15.08829749,0.0002308,53.2172,196.9466,44.8815,315.2363,5.3173e-05,5.58e-06,0.0,0 STARLINK-3162,1 49411U 21104D   22251.54441438  .00000558  00000-0  53173-4 0  9993,2 49411  53.2172 196.9466 0002308  44.8815 315.2363 15.08829749 46898,6917.9119999999975,95.438,541.373,538.18,0.0
49411.0,STARLINK-3162,PAYLOAD,2022-09-09 06:33:11,15.08836869,0.0002305,53.2166,193.677,41.9525,318.1644,0.00011004,1.463e-05,0.0,0 STARLINK-3162,1 49411U 21104D   22252.27305190  .00001463  00000-0  11004-3 0  9990,2 49411  53.2166 193.6770 0002305  41.9525 318.1644 15.08836869 45924,6917.89,95.438,541.35,538.16,0.0
49411.0,STARLINK-3162,PAYLOAD,2022-09-10 03:13:13,15.08833348,0.0002602,53.2175,189.8094,44.3681,315.7519,-5.4342e-05,-1.153e-05,0.0,0 STARLINK-3162,1 49411U 21104D   22253.13418472 -.00001153  00000-0 -54342-4 0  9995,2 49411  53.2175 189.8094 0002602  44.3681 315.7519 15.08833348 47138,6917.901,95.438,541.566,537.966,0.0
